{"type":"FeatureCollection","features":[{"type":"Feature","properties":{"name":"Ganga"},"geometry":{"type":"Polygon","coordinates":[[[82.95783,25.33089],[82.95809,25.32932],[82.95822,25.32797],[82.95819,25.32733],[82.95825,25.32631],[82.95785,25.32458],[82.95782,25.32417],[82.95769,25.32374],[82.95751,25.32342],[82.95739,25.32258],[82.95704,25.32194],[82.95677,25.32164],[82.95634,25.32144],[82.95603,25.3214],[82.95575,25.32146],[82.95556,25.32139],[82.95429,25.32163],[82.95109,25.32273],[82.95047,25.32314],[82.95017,25.32354],[82.95013,25.32485],[82.95015,25.32609],[82.95041,25.32624],[82.95048,25.32395],[82.95077,25.32333],[82.95113,25.32308],[82.9537,25.32219],[82.95511,25.32184],[82.95528,25.32172],[82.95577,25.32169],[82.95621,25.32181],[82.95649,25.32192],[82.95677,25.32219],[82.95697,25.32257],[82.95709,25.323],[82.95728,25.32403],[82.95772,25.32569],[82.95788,25.32711],[82.95783,25.32858],[82.95769,25.32974],[82.95723,25.33196],[82.95672,25.33393],[82.95667,25.33442],[82.95671,25.33482],[82.95721,25.33611],[82.95712,25.33619],[82.95738,25.33627],[82.95815,25.33675],[82.95973,25.33799],[82.96012,25.33817],[82.96046,25.33844],[82.96089,25.3386],[82.96159,25.33907],[82.96276,25.34021],[82.96311,25.34074],[82.96366,25.34132],[82.96429,25.3416],[82.96688,25.34227],[82.9682,25.34241],[82.96904,25.34243],[82.97032,25.34229],[82.97125,25.342],[82.97205,25.34152],[82.97249,25.34108],[82.97521,25.33883],[82.97574,25.33859],[82.97607,25.33857],[82.97686,25.3389],[82.97907,25.33964],[82.98198,25.34095],[82.98386,25.34142],[82.98465,25.34139],[82.98559,25.34116],[82.98708,25.34107],[82.98718,25.34111],[82.98722,25.34122],[82.98764,25.34116],[82.98775,25.34102],[82.98919,25.34118],[82.99017,25.34107],[82.9904,25.341],[82.9908,25.34067],[82.99098,25.33966],[82.99116,25.33945],[82.99148,25.33736],[82.99179,25.33644],[82.99222,25.33568],[82.99277,25.33519],[82.99343,25.33496],[82.99326,25.33452],[82.99277,25.3347],[82.99177,25.3353],[82.99177,25.33543],[82.99135,25.3359],[82.99129,25.33627],[82.99102,25.33665],[82.99042,25.34025],[82.99028,25.3405],[82.98989,25.34071],[82.98789,25.34056],[82.98664,25.34058],[82.98438,25.34085],[82.9837,25.34082],[82.98236,25.34052],[82.98167,25.3403],[82.97972,25.33955],[82.97871,25.33906],[82.97794,25.33887],[82.97637,25.33827],[82.97563,25.3382],[82.97517,25.33833],[82.97312,25.34002],[82.97203,25.34099],[82.9715,25.34139],[82.9707,25.34177],[82.96963,25.34202],[82.96865,25.34204],[82.96661,25.34185],[82.96438,25.3413],[82.96397,25.34111],[82.96351,25.3408],[82.96329,25.3403],[82.96305,25.33993],[82.96215,25.33895],[82.96116,25.3383],[82.96037,25.33769],[82.95917,25.33709],[82.95755,25.33602],[82.95726,25.33559],[82.95698,25.33471],[82.957,25.33412],[82.95732,25.33263],[82.95748,25.33226],[82.95783,25.33089]]]}},{"type":"Feature","properties":{"name":"Ganga"},"geometry":{"type":"Polygon","coordinates":[[[83.00652,25.29042],[83.00673,25.29181],[83.00691,25.29219],[83.00718,25.2935],[83.00729,25.29517],[83.0074,25.29522],[83.00731,25.29656],[83.00745,25.29688],[83.00757,25.29756],[83.00754,25.29793],[83.00744,25.2982],[83.00755,25.29902],[83.00777,25.29966],[83.00773,25.30023],[83.00793,25.30198],[83.00798,25.30211],[83.00809,25.30208],[83.00817,25.30253],[83.00894,25.30431],[83.00937,25.30493],[83.00949,25.30506],[83.00956,25.30502],[83.00997,25.30559],[83.0106,25.30671],[83.01149,25.30805],[83.01158,25.30809],[83.01289,25.30937],[83.01295,25.30935],[83.01309,25.30959],[83.01305,25.30964],[83.01316,25.30973],[83.01357,25.30972],[83.01398,25.31063],[83.0142,25.31049],[83.01462,25.31086],[83.01454,25.31097],[83.01492,25.31135],[83.01508,25.31148],[83.0154,25.31159],[83.01538,25.31163],[83.0157,25.31192],[83.01595,25.31243],[83.01628,25.31285],[83.01685,25.31387],[83.01704,25.31403],[83.01734,25.31459],[83.0179,25.3149],[83.01821,25.315],[83.01842,25.31519],[83.01846,25.31531],[83.01929,25.31595],[83.01993,25.31628],[83.01997,25.31624],[83.02035,25.31661],[83.02063,25.31705],[83.02059,25.31711],[83.02219,25.31795],[83.02272,25.31833],[83.02369,25.31883],[83.0242,25.31922],[83.02509,25.31973],[83.02599,25.32039],[83.02684,25.32087],[83.02754,25.32124],[83.02831,25.32154],[83.02958,25.32231],[83.03284,25.32405],[83.0347,25.3248],[83.0355,25.32489],[83.03813,25.32618],[83.03813,25.32627],[83.03768,25.32659],[83.03778,25.3267],[83.03823,25.32642],[83.0385,25.32646],[83.04294,25.32857],[83.0444,25.32939],[83.04492,25.3295],[83.04672,25.33017],[83.05283,25.33211],[83.05915,25.33373],[83.06238,25.33502],[83.06395,25.33549],[83.07129,25.33715],[83.07348,25.33758],[83.07929,25.33857],[83.08064,25.33842],[83.08156,25.33804],[83.08533,25.33881],[83.08544,25.33891],[83.08557,25.33884],[83.09289,25.3396],[83.09607,25.3397],[83.09504,25.32795],[83.09419,25.32786],[83.09367,25.32812],[83.09343,25.3281],[83.09263,25.32782],[83.08665,25.32799],[83.08121,25.32763],[83.07726,25.3272],[83.07408,25.32679],[83.07159,25.32667],[83.05969,25.32563],[83.05026,25.32403],[83.04147,25.32182],[83.0376,25.32075],[83.03552,25.31986],[83.03383,25.31896],[83.03129,25.3179],[83.02988,25.31713],[83.02859,25.31592],[83.02569,25.31266],[83.0238,25.30934],[83.02263,25.30713],[83.02071,25.30288],[83.01986,25.30032],[83.01919,25.29793],[83.01887,25.29514],[83.01895,25.29199],[83.01921,25.28933],[83.01968,25.28589],[83.02122,25.2793],[83.02246,25.2752],[83.02266,25.2728],[83.02341,25.27083],[83.0238,25.26889],[83.02412,25.26861],[83.02509,25.26685],[83.02562,25.26609],[83.02601,25.26539],[83.02708,25.26307],[83.02927,25.2564],[83.03043,25.25264],[83.03012,25.25255],[83.03055,25.25074],[83.03088,25.2508],[83.031,25.25032],[83.03093,25.24992],[83.03098,25.24971],[83.03194,25.24694],[83.03213,25.24656],[83.03232,25.24565],[83.03213,25.24481],[83.03185,25.24441],[83.03227,25.24349],[83.03243,25.24281],[83.03228,25.24195],[83.03209,25.24164],[83.0323,25.241],[83.03246,25.23976],[83.0324,25.23897],[83.03256,25.23805],[83.03237,25.23706],[83.0324,25.23628],[83.03213,25.23482],[83.03146,25.23409],[83.0314,25.23319],[83.03084,25.23159],[83.03031,25.23099],[83.03024,25.23014],[83.02792,25.22641],[83.02509,25.22224],[83.02346,25.22038],[83.02194,25.2182],[83.02104,25.21736],[83.02054,25.21722],[83.01992,25.21659],[83.01973,25.21664],[83.01914,25.21578],[83.01895,25.21513],[83.01712,25.2126],[83.01635,25.21253],[83.01545,25.21132],[83.01498,25.21029],[83.01411,25.20962],[83.01361,25.20952],[83.01342,25.20965],[83.00887,25.20544],[83.00849,25.2052],[83.00708,25.20379],[83.00466,25.20187],[83.00295,25.20162],[82.99904,25.20153],[82.99712,25.20179],[82.99661,25.20206],[82.99449,25.20207],[82.99311,25.2018],[82.99105,25.20178],[82.98712,25.20197],[82.97918,25.20261],[82.9724,25.20333],[82.9696,25.204],[82.9621,25.2043],[82.95855,25.20453],[82.94699,25.20448],[82.92318,25.20279],[82.9199,25.20157],[82.91669,25.19956],[82.91632,25.198],[82.91631,25.19637],[82.91674,25.19259],[82.917,25.19123],[82.91696,25.19055],[82.91711,25.19029],[82.91696,25.18977],[82.91738,25.18894],[82.91765,25.18869],[82.918,25.1887],[82.91817,25.18708],[82.91991,25.18092],[82.91771,25.17449],[82.90756,25.16506],[82.89838,25.15424],[82.88772,25.14133],[82.87744,25.14475],[82.87907,25.1561],[82.88097,25.16736],[82.88201,25.1704],[82.88361,25.17204],[82.88636,25.17226],[82.88851,25.1726],[82.8894,25.1723],[82.89082,25.17279],[82.8923,25.17476],[82.8976,25.1864],[82.90277,25.19794],[82.90901,25.20279],[82.91023,25.20315],[82.91137,25.20404],[82.91524,25.20491],[82.91613,25.2056],[82.91779,25.20627],[82.926,25.2078],[82.9361,25.21032],[82.94144,25.21109],[82.94367,25.21158],[82.94644,25.21181],[82.95007,25.21199],[82.95079,25.21193],[82.95076,25.2118],[82.95429,25.21183],[82.95446,25.21175],[82.96492,25.21197],[82.9683,25.21197],[82.969,25.21217],[82.96916,25.21211],[82.97123,25.21224],[82.98167,25.21244],[82.9966,25.21361],[83.00482,25.21469],[83.00615,25.2153],[83.00666,25.21534],[83.01234,25.21817],[83.01545,25.22006],[83.01959,25.22312],[83.02175,25.22559],[83.02297,25.22721],[83.02487,25.23002],[83.02657,25.23542],[83.02705,25.23761],[83.02737,25.24006],[83.02776,25.24189],[83.028,25.24485],[83.02777,25.24682],[83.02723,25.2493],[83.0261,25.25279],[83.02528,25.25573],[83.02387,25.25817],[83.02225,25.26021],[83.01883,25.2657],[83.01698,25.26907],[83.01217,25.27846],[83.00986,25.28279],[83.00984,25.28304],[83.00967,25.28328],[83.00899,25.28466],[83.00859,25.2852],[83.00743,25.28767],[83.00652,25.29042]]]}},{"type":"Feature","properties":{"name":"Ganga"},"geometry":{"type":"Polygon","coordinates":[[[83.02555,25.34147],[83.02721,25.34111],[83.02772,25.3409],[83.02899,25.3408],[83.02979,25.34088],[83.03092,25.34119],[83.03197,25.3416],[83.03224,25.34141],[83.03141,25.34098],[83.03019,25.34062],[83.02872,25.34041],[83.0284,25.34055],[83.02727,25.34077],[83.02462,25.34157],[83.02407,25.34134],[83.02348,25.34136],[83.0232,25.34146],[83.02317,25.34138],[83.02284,25.34135],[83.02276,25.34126],[83.02264,25.34132],[83.02234,25.34133],[83.0219,25.34128],[83.02111,25.34104],[83.01924,25.34035],[83.01887,25.34029],[83.01851,25.34027],[83.01823,25.34033],[83.01695,25.34089],[83.0162,25.34104],[83.01528,25.34105],[83.01341,25.3409],[83.01277,25.34094],[83.01268,25.34068],[83.01238,25.34085],[83.01166,25.34076],[83.0115,25.34091],[83.01108,25.34095],[83.01107,25.34116],[83.0109,25.3412],[83.01079,25.34098],[83.01059,25.34103],[83.00967,25.34107],[83.00952,25.34099],[83.00943,25.34102],[83.00933,25.34121],[83.00924,25.34123],[83.009,25.34121],[83.00878,25.34103],[83.00876,25.34093],[83.00885,25.34073],[83.00872,25.34064],[83.00853,25.34081],[83.00857,25.34124],[83.00849,25.34131],[83.00709,25.34138],[83.00607,25.34158],[83.00549,25.34183],[83.00398,25.34266],[83.0024,25.34318],[83.00196,25.34316],[83.00176,25.34308],[83.00151,25.34331],[83.00195,25.3435],[83.00272,25.34343],[83.00478,25.34272],[83.00594,25.34208],[83.00671,25.34184],[83.00812,25.34169],[83.01058,25.34165],[83.01279,25.3413],[83.01456,25.34127],[83.01601,25.34135],[83.01649,25.34132],[83.01697,25.34122],[83.01832,25.34066],[83.01859,25.34061],[83.0189,25.34062],[83.01974,25.34091],[83.02043,25.34122],[83.02253,25.342],[83.02286,25.34207],[83.02286,25.34202],[83.02307,25.34198],[83.02458,25.34183],[83.02542,25.3416],[83.02555,25.34147]]]}}]}